{
  "type": "FeatureCollection",
  "features": [
    {
      "type": "Feature",
      "properties": {
        "norad_id": 43207,
        "name": "BEIDOU-3 M4 (C22)",
        "group": "beidou",
        "lat": 55.65676887671947,
        "lon": 144.81108480593454,
        "alt_km": 21518.466663298288,
        "timestamp": "2025-12-14T14:39:29.635742+00:00",
        "meta_object_name": "BEIDOU-3 M4 (C22)",
        "meta_object_id": "2018-018A",
        "meta_epoch": "2025-12-13T09:57:17.275392",
        "meta_mean_motion": 1.86231174,
        "meta_eccentricity": 0.00041262,
        "meta_inclination": 56.4868,
        "meta_ra_of_asc_node": 69.2813,
        "meta_arg_of_pericenter": 7.8207,
        "meta_mean_anomaly": 352.2039,
        "meta_ephemeris_type": 0,
        "meta_classification_type": "U",
        "meta_norad_cat_id": 43207,
        "meta_element_set_no": 999,
        "meta_rev_at_epoch": 5328,
        "meta_bstar": 0,
        "meta_mean_motion_dot": -7.8e-07,
        "meta_mean_motion_ddot": 0,
        "tle_line1": "1 43207U 18018A   25347.41478328 -.00000078  00000+0  00000+0 0  9996",
        "tle_line2": "2 43207  56.4868  69.2813 0004126   7.8207 352.2039  1.86231174 53286"
      },
      "geometry": {
        "type": "Point",
        "coordinates": [
          144.81108480593454,
          55.65676887671947
        ]
      }
    },
    {
      "type": "Feature",
      "properties": {
        "norad_id": 43208,
        "name": "BEIDOU-3 M3 (C21)",
        "group": "beidou",
        "lat": 30.33434780304178,
        "lon": 92.03311400476487,
        "alt_km": 21521.229985714173,
        "timestamp": "2025-12-14T14:39:29.635754+00:00",
        "meta_object_name": "BEIDOU-3 M3 (C21)",
        "meta_object_id": "2018-018B",
        "meta_epoch": "2025-12-10T19:07:00.567840",
        "meta_mean_motion": 1.8623124,
        "meta_eccentricity": 0.0006564,
        "meta_inclination": 56.484,
        "meta_ra_of_asc_node": 69.3721,
        "meta_arg_of_pericenter": 317.0111,
        "meta_mean_anomaly": 42.9593,
        "meta_ephemeris_type": 0,
        "meta_classification_type": "U",
        "meta_norad_cat_id": 43208,
        "meta_element_set_no": 999,
        "meta_rev_at_epoch": 5323,
        "meta_bstar": 0,
        "meta_mean_motion_dot": -5.7e-07,
        "meta_mean_motion_ddot": 0,
        "tle_line1": "1 43208U 18018B   25344.79653435 -.00000057  00000+0  00000+0 0  9996",
        "tle_line2": "2 43208  56.4840  69.3721 0006564 317.0111  42.9593  1.86231240 53231"
      },
      "geometry": {
        "type": "Point",
        "coordinates": [
          92.03311400476487,
          30.33434780304178
        ]
      }
    },
    {
      "type": "Feature",
      "properties": {
        "norad_id": 43245,
        "name": "BEIDOU-3 M9 (C29)",
        "group": "beidou",
        "lat": -50.73863781681101,
        "lon": -172.3307714090689,
        "alt_km": 21530.168400563423,
        "timestamp": "2025-12-14T14:39:29.635765+00:00",
        "meta_object_name": "BEIDOU-3 M9 (C29)",
        "meta_object_id": "2018-029A",
        "meta_epoch": "2025-12-13T16:44:23.326080",
        "meta_mean_motion": 1.86228191,
        "meta_eccentricity": 0.00015381,
        "meta_inclination": 54.3645,
        "meta_ra_of_asc_node": 306.4337,
        "meta_arg_of_pericenter": 281.6708,
        "meta_mean_anomaly": 78.3012,
        "meta_ephemeris_type": 0,
        "meta_classification_type": "U",
        "meta_norad_cat_id": 43245,
        "meta_element_set_no": 999,
        "meta_rev_at_epoch": 5244,
        "meta_bstar": 0,
        "meta_mean_motion_dot": -9.8e-07,
        "meta_mean_motion_ddot": 0,
        "tle_line1": "1 43245U 18029A   25347.69749220 -.00000098  00000+0  00000+0 0  9994",
        "tle_line2": "2 43245  54.3645 306.4337 0001538 281.6708  78.3012  1.86228191 52446"
      },
      "geometry": {
        "type": "Point",
        "coordinates": [
          -172.3307714090689,
          -50.73863781681101
        ]
      }
    },
    {
      "type": "Feature",
      "properties": {
        "norad_id": 43246,
        "name": "BEIDOU-3 M10 (C30)",
        "group": "beidou",
        "lat": -47.09311090625899,
        "lon": -104.06338619216726,
        "alt_km": 21528.789308574993,
        "timestamp": "2025-12-14T14:39:29.635777+00:00",
        "meta_object_name": "BEIDOU-3 M10 (C30)",
        "meta_object_id": "2018-029B",
        "meta_epoch": "2025-12-13T02:17:56.021856",
        "meta_mean_motion": 1.86228806,
        "meta_eccentricity": 0.00040465,
        "meta_inclination": 54.3625,
        "meta_ra_of_asc_node": 306.4821,
        "meta_arg_of_pericenter": 0.6072,
        "meta_mean_anomaly": 359.3832,
        "meta_ephemeris_type": 0,
        "meta_classification_type": "U",
        "meta_norad_cat_id": 43246,
        "meta_element_set_no": 999,
        "meta_rev_at_epoch": 5241,
        "meta_bstar": 0,
        "meta_mean_motion_dot": -9.6e-07,
        "meta_mean_motion_ddot": 0,
        "tle_line1": "1 43246U 18029B   25347.09578729 -.00000096  00000+0  00000+0 0  9991",
        "tle_line2": "2 43246  54.3625 306.4821 0004046   0.6072 359.3832  1.86228806 52415"
      },
      "geometry": {
        "type": "Point",
        "coordinates": [
          -104.06338619216726,
          -47.09311090625899
        ]
      }
    },
    {
      "type": "Feature",
      "properties": {
        "norad_id": 43539,
        "name": "BEIDOU-2 IGSO-7 (C16)",
        "group": "beidou",
        "lat": -50.350596512485225,
        "lon": 41.903875846848514,
        "alt_km": 35418.95822032741,
        "timestamp": "2025-12-14T14:39:29.635793+00:00",
        "meta_object_name": "BEIDOU-2 IGSO-7 (C16)",
        "meta_object_id": "2018-057A",
        "meta_epoch": "2025-12-13T21:43:45.803136",
        "meta_mean_motion": 1.00256887,
        "meta_eccentricity": 0.00923973,
        "meta_inclination": 55.1758,
        "meta_ra_of_asc_node": 164.6607,
        "meta_arg_of_pericenter": 235.1935,
        "meta_mean_anomaly": 119.7561,
        "meta_ephemeris_type": 0,
        "meta_classification_type": "U",
        "meta_norad_cat_id": 43539,
        "meta_element_set_no": 999,
        "meta_rev_at_epoch": 2726,
        "meta_bstar": 0,
        "meta_mean_motion_dot": -2.9e-07,
        "meta_mean_motion_ddot": 0,
        "tle_line1": "1 43539U 18057A   25347.90539124 -.00000029  00000+0  00000+0 0  9999",
        "tle_line2": "2 43539  55.1758 164.6607 0092397 235.1935 119.7561  1.00256887 27269"
      },
      "geometry": {
        "type": "Point",
        "coordinates": [
          41.903875846848514,
          -50.350596512485225
        ]
      }
    },
    {
      "type": "Feature",
      "properties": {
        "norad_id": 43581,
        "name": "BEIDOU-3 M5 (C23)",
        "group": "beidou",
        "lat": 27.57922346269662,
        "lon": -13.659223415286224,
        "alt_km": 21530.021077099707,
        "timestamp": "2025-12-14T14:39:29.635804+00:00",
        "meta_object_name": "BEIDOU-3 M5 (C23)",
        "meta_object_id": "2018-062A",
        "meta_epoch": "2025-12-12T05:55:01.607232",
        "meta_mean_motion": 1.86228672,
        "meta_eccentricity": 0.00021016,
        "meta_inclination": 54.0891,
        "meta_ra_of_asc_node": 188.6597,
        "meta_arg_of_pericenter": 354.1416,
        "meta_mean_anomaly": 5.9159,
        "meta_ephemeris_type": 0,
        "meta_classification_type": "U",
        "meta_norad_cat_id": 43581,
        "meta_element_set_no": 999,
        "meta_rev_at_epoch": 5015,
        "meta_bstar": 0,
        "meta_mean_motion_dot": 7.9e-07,
        "meta_mean_motion_ddot": 0,
        "tle_line1": "1 43581U 18062A   25346.24654638  .00000079  00000+0  00000+0 0  9990",
        "tle_line2": "2 43581  54.0891 188.6597 0002101 354.1416   5.9159  1.86228672 50154"
      },
      "geometry": {
        "type": "Point",
        "coordinates": [
          -13.659223415286224,
          27.57922346269662
        ]
      }
    },
    {
      "type": "Feature",
      "properties": {
        "norad_id": 43582,
        "name": "BEIDOU-3 M6 (C24)",
        "group": "beidou",
        "lat": -42.75165216223952,
        "lon": 50.64306945883495,
        "alt_km": 21554.87667759109,
        "timestamp": "2025-12-14T14:39:29.635815+00:00",
        "meta_object_name": "BEIDOU-3 M6 (C24)",
        "meta_object_id": "2018-062B",
        "meta_epoch": "2025-12-13T04:24:17.587296",
        "meta_mean_motion": 1.86229795,
        "meta_eccentricity": 0.00078891,
        "meta_inclination": 54.0888,
        "meta_ra_of_asc_node": 188.6169,
        "meta_arg_of_pericenter": 47.4004,
        "meta_mean_anomaly": 312.7289,
        "meta_ephemeris_type": 0,
        "meta_classification_type": "U",
        "meta_norad_cat_id": 43582,
        "meta_element_set_no": 999,
        "meta_rev_at_epoch": 5017,
        "meta_bstar": 0,
        "meta_mean_motion_dot": 9.2e-07,
        "meta_mean_motion_ddot": 0,
        "tle_line1": "1 43582U 18062B   25347.18353689  .00000092  00000+0  00000+0 0  9992",
        "tle_line2": "2 43582  54.0888 188.6169 0007889  47.4004 312.7289  1.86229795 50171"
      },
      "geometry": {
        "type": "Point",
        "coordinates": [
          50.64306945883495,
          -42.75165216223952
        ]
      }
    }
  ]
}